{"type": "FeatureCollection", "features": [ {"type": "Feature", "properties": {"norad_id": 42987, "name": "SKYSAT-C11", "group": "resource", "lat": 68.72676854804206, "lon": 118.22632506292857, "alt_km": 415.1754564373341, "timestamp": "2025-12-25T22:42:16.653941+00:00", "meta": {"OBJECT_NAME": "SKYSAT-C11", "OBJECT_ID": "2017-068A", "EPOCH": "2025-12-24T21:34:50.650176", "MEAN_MOTION": 15.4796518, "ECCENTRICITY": 0.0001116, "INCLINATION": 97.4153, "RA_OF_ASC_NODE": 136.6958, "ARG_OF_PERICENTER": 96.4287, "MEAN_ANOMALY": 263.709, "EPHEMERIS_TYPE": 0, "CLASSIFICATION_TYPE": "U", "NORAD_CAT_ID": 42987, "ELEMENT_SET_NO": 999, "REV_AT_EPOCH": 45619, "BSTAR": 0.00045752, "MEAN_MOTION_DOT": 0.00023827, "MEAN_MOTION_DDOT": 0}, "tle": {"line1": "1 42987U 17068A   25358.89919734  .00023827  00000+0  45752-3 0  9992", "line2": "2 42987  97.4153 136.6958 0001116  96.4287 263.7090 15.47965180456192"}}, "geometry": {"type": "Point", "coordinates": [118.22632506292857, 68.72676854804206]}}, {"type": "Feature", "properties": {"norad_id": 42988, "name": "SKYSAT-C10", "group": "resource", "lat": 47.46271463219528, "lon": -40.99110475121444, "alt_km": 463.9605343107187, "timestamp": "2025-12-25T22:42:16.653952+00:00", "meta": {"OBJECT_NAME": "SKYSAT-C10", "OBJECT_ID": "2017-068B", "EPOCH": "2025-12-24T19:29:00.783168", "MEAN_MOTION": 15.32071049, "ECCENTRICITY": 0.00043105, "INCLINATION": 97.4272, "RA_OF_ASC_NODE": 129.6977, "ARG_OF_PERICENTER": 75.127, "MEAN_ANOMALY": 285.0448, "EPHEMERIS_TYPE": 0, "CLASSIFICATION_TYPE": "U", "NORAD_CAT_ID": 42988, "ELEMENT_SET_NO": 999, "REV_AT_EPOCH": 45564, "BSTAR": 0.00040464637, "MEAN_MOTION_DOT": 0.00012461, "MEAN_MOTION_DDOT": 0}, "tle": {"line1": "1 42988U 17068B   25358.81181462  .00012461  00000+0  40465-3 0  9992", "line2": "2 42988  97.4272 129.6977 0004310  75.1270 285.0448 15.32071049455642"}}, "geometry": {"type": "Point", "coordinates": [-40.99110475121444, 47.46271463219528]}}, {"type": "Feature", "properties": {"norad_id": 42989, "name": "SKYSAT-C9", "group": "resource", "lat": 7.945164425794462, "lon": -48.651108789095545, "alt_km": 463.02861778257284, "timestamp": "2025-12-25T22:42:16.653962+00:00", "meta": {"OBJECT_NAME": "SKYSAT-C9", "OBJECT_ID": "2017-068C", "EPOCH": "2025-12-25T07:53:29.378400", "MEAN_MOTION": 15.36363881, "ECCENTRICITY": 0.0010242, "INCLINATION": 97.4193, "RA_OF_ASC_NODE": 129.6845, "ARG_OF_PERICENTER": 47.2855, "MEAN_ANOMALY": 312.925, "EPHEMERIS_TYPE": 0, "CLASSIFICATION_TYPE": "U", "NORAD_CAT_ID": 42989, "ELEMENT_SET_NO": 999, "REV_AT_EPOCH": 45601, "BSTAR": 0.00039021, "MEAN_MOTION_DOT": 0.00013787, "MEAN_MOTION_DDOT": 0}, "tle": {"line1": "1 42989U 17068C   25359.32881225  .00013787  00000+0  39021-3 0  9992", "line2": "2 42989  97.4193 129.6845 0010242  47.2855 312.9250 15.36363881456014"}}, "geometry": {"type": "Point", "coordinates": [-48.651108789095545, 7.945164425794462]}}, {"type": "Feature", "properties": {"norad_id": 42990, "name": "SKYSAT-C8", "group": "resource", "lat": -7.013575966967913, "lon": 130.92603424274762, "alt_km": 470.1832490112947, "timestamp": "2025-12-25T22:42:16.653973+00:00", "meta": {"OBJECT_NAME": "SKYSAT-C8", "OBJECT_ID": "2017-068D", "EPOCH": "2025-12-25T14:54:12.989952", "MEAN_MOTION": 15.33202976, "ECCENTRICITY": 9.35e-05, "INCLINATION": 97.4288, "RA_OF_ASC_NODE": 129.6797, "ARG_OF_PERICENTER": 266.8482, "MEAN_ANOMALY": 93.2653, "EPHEMERIS_TYPE": 0, "CLASSIFICATION_TYPE": "U", "NORAD_CAT_ID": 42990, "ELEMENT_SET_NO": 999, "REV_AT_EPOCH": 45568, "BSTAR": 0.00038527, "MEAN_MOTION_DOT": 0.00012287, "MEAN_MOTION_DDOT": 0}, "tle": {"line1": "1 42990U 17068D   25359.62098368  .00012287  00000+0  38527-3 0  9999", "line2": "2 42990  97.4288 129.6797 0000935 266.8482  93.2653 15.33202976455682"}}, "geometry": {"type": "Point", "coordinates": [130.92603424274762, -7.013575966967913]}}, {"type": "Feature", "properties": {"norad_id": 42991, "name": "SKYSAT-C7", "group": "resource", "lat": -0.12703407005260053, "lon": -48.97986894955846, "alt_km": 475.678114651897, "timestamp": "2025-12-25T22:42:16.653983+00:00", "meta": {"OBJECT_NAME": "SKYSAT-C7", "OBJECT_ID": "2017-068E", "EPOCH": "2025-12-25T15:39:14.167584", "MEAN_MOTION": 15.32597834, "ECCENTRICITY": 0.0006817, "INCLINATION": 97.4295, "RA_OF_ASC_NODE": 130.7418, "ARG_OF_PERICENTER": 15.9528, "MEAN_ANOMALY": 344.1927, "EPHEMERIS_TYPE": 0, "CLASSIFICATION_TYPE": "U", "NORAD_CAT_ID": 42991, "ELEMENT_SET_NO": 999, "REV_AT_EPOCH": 45575, "BSTAR": 0.00039345, "MEAN_MOTION_DOT": 0.00012321, "MEAN_MOTION_DDOT": 0}, "tle": {"line1": "1 42991U 17068E   25359.65224731  .00012321  00000+0  39345-3 0  9996", "line2": "2 42991  97.4295 130.7418 0006817  15.9528 344.1927 15.32597834455752"}}, "geometry": {"type": "Point", "coordinates": [-48.97986894955846, -0.12703407005260053]}}, {"type": "Feature", "properties": {"norad_id": 42992, "name": "SKYSAT-C6", "group": "resource", "lat": -75.03215623582093, "lon": -77.76626783293412, "alt_km": 480.6927103921862, "timestamp": "2025-12-25T22:42:16.653993+00:00", "meta": {"OBJECT_NAME": "SKYSAT-C6", "OBJECT_ID": "2017-068F", "EPOCH": "2025-12-25T15:18:53.410752", "MEAN_MOTION": 15.31751977, "ECCENTRICITY": 0.0004748, "INCLINATION": 97.4329, "RA_OF_ASC_NODE": 131.1556, "ARG_OF_PERICENTER": 47.0891, "MEAN_ANOMALY": 313.0748, "EPHEMERIS_TYPE": 0, "CLASSIFICATION_TYPE": "U", "NORAD_CAT_ID": 42992, "ELEMENT_SET_NO": 999, "REV_AT_EPOCH": 45573, "BSTAR": 0.00038469, "MEAN_MOTION_DOT": 0.00011725, "MEAN_MOTION_DDOT": 0}, "tle": {"line1": "1 42992U 17068F   25359.63811818  .00011725  00000+0  38469-3 0  9996", "line2": "2 42992  97.4329 131.1556 0004748  47.0891 313.0748 15.31751977455732"}}, "geometry": {"type": "Point", "coordinates": [-77.76626783293412, -75.03215623582093]}}, {"type": "Feature", "properties": {"norad_id": 43111, "name": "CARTOSAT-2F", "group": "resource", "lat": 43.23323703007924, "lon": -115.58472305541314, "alt_km": 503.6519558556556, "timestamp": "2025-12-25T22:42:16.654003+00:00", "meta": {"OBJECT_NAME": "CARTOSAT-2F", "OBJECT_ID": "2018-004A", "EPOCH": "2025-12-25T17:21:53.663328", "MEAN_MOTION": 15.19246559, "ECCENTRICITY": 0.0001536, "INCLINATION": 97.4293, "RA_OF_ASC_NODE": 57.1497, "ARG_OF_PERICENTER": 107.9122, "MEAN_ANOMALY": 252.228, "EPHEMERIS_TYPE": 0, "CLASSIFICATION_TYPE": "U", "NORAD_CAT_ID": 43111, "ELEMENT_SET_NO": 999, "REV_AT_EPOCH": 44099, "BSTAR": 0.00021953, "MEAN_MOTION_DOT": 4.559e-05, "MEAN_MOTION_DDOT": 0}, "tle": {"line1": "1 43111U 18004A   25359.72353777  .00004559  00000+0  21953-3 0  9993", "line2": "2 43111  97.4293  57.1497 0001536 107.9122 252.2280 15.19246559440990"}}, "geometry": {"type": "Point", "coordinates": [-115.58472305541314, 43.23323703007924]}}, {"type": "Feature", "properties": {"norad_id": 43259, "name": "GAOFEN-1 02", "group": "resource", "lat": 29.93468679157689, "lon": 53.04747152530326, "alt_km": 640.4642321450874, "timestamp": "2025-12-25T22:42:16.654014+00:00", "meta": {"OBJECT_NAME": "GAOFEN-1 02", "OBJECT_ID": "2018-031A", "EPOCH": "2025-12-25T17:41:18.171168", "MEAN_MOTION": 14.7644276, "ECCENTRICITY": 0.0002643, "INCLINATION": 98.0784, "RA_OF_ASC_NODE": 57.5297, "ARG_OF_PERICENTER": 169.6913, "MEAN_ANOMALY": 190.4351, "EPHEMERIS_TYPE": 0, "CLASSIFICATION_TYPE": "U", "NORAD_CAT_ID": 43259, "ELEMENT_SET_NO": 999, "REV_AT_EPOCH": 41710, "BSTAR": 0.00021418, "MEAN_MOTION_DOT": 1.438e-05, "MEAN_MOTION_DDOT": 0}, "tle": {"line1": "1 43259U 18031A   25359.73701587  .00001438  00000+0  21418-3 0  9992", "line2": "2 43259  98.0784  57.5297 0002643 169.6913 190.4351 14.76442760417103"}}, "geometry": {"type": "Point", "coordinates": [53.04747152530326, 29.93468679157689]}}, {"type": "Feature", "properties": {"norad_id": 43260, "name": "GAOFEN-1 03", "group": "resource", "lat": 32.97022857722927, "lon": -117.09919802351031, "alt_km": 638.837498056153, "timestamp": "2025-12-25T22:42:16.654024+00:00", "meta": {"OBJECT_NAME": "GAOFEN-1 03", "OBJECT_ID": "2018-031B", "EPOCH": "2025-12-25T18:47:23.480160", "MEAN_MOTION": 14.76462846, "ECCENTRICITY": 0.0001749, "INCLINATION": 98.078, "RA_OF_ASC_NODE": 57.4517, "ARG_OF_PERICENTER": 251.9369, "MEAN_ANOMALY": 108.165, "EPHEMERIS_TYPE": 0, "CLASSIFICATION_TYPE": "U", "NORAD_CAT_ID": 43260, "ELEMENT_SET_NO": 999, "REV_AT_EPOCH": 41710, "BSTAR": 0.00014551, "MEAN_MOTION_DOT": 9.61e-06, "MEAN_MOTION_DDOT": 0}, "tle": {"line1": "1 43260U 18031B   25359.78291065  .00000961  00000+0  14551-3 0  9994", "line2": "2 43260  98.0780  57.4517 0001749 251.9369 108.1650 14.76462846417106"}}, "geometry": {"type": "Point", "coordinates": [-117.09919802351031, 32.97022857722927]}}, {"type": "Feature", "properties": {"norad_id": 43262, "name": "GAOFEN-1 04", "group": "resource", "lat": -80.24831434026406, "lon": 113.52086850471015, "alt_km": 648.2502542091961, "timestamp": "2025-12-25T22:42:16.654034+00:00", "meta": {"OBJECT_NAME": "GAOFEN-1 04", "OBJECT_ID": "2018-031D", "EPOCH": "2025-12-25T18:12:26.868384", "MEAN_MOTION": 14.76432757, "ECCENTRICITY": 5.2e-05, "INCLINATION": 98.0786, "RA_OF_ASC_NODE": 57.5976, "ARG_OF_PERICENTER": 61.1447, "MEAN_ANOMALY": 298.9814, "EPHEMERIS_TYPE": 0, "CLASSIFICATION_TYPE": "U", "NORAD_CAT_ID": 43262, "ELEMENT_SET_NO": 999, "REV_AT_EPOCH": 41709, "BSTAR": 0.00016124, "MEAN_MOTION_DOT": 1.069e-05, "MEAN_MOTION_DDOT": 0}, "tle": {"line1": "1 43262U 18031D   25359.75864431  .00001069  00000+0  16124-3 0  9994", "line2": "2 43262  98.0786  57.5976 0000520  61.1447 298.9814 14.76432757417094"}}, "geometry": {"type": "Point", "coordinates": [113.52086850471015, -80.24831434026406]}}]}